NORAD_CAT_ID,OBJECT_NAME,OBJECT_TYPE,EPOCH,MEAN_MOTION,ECCENTRICITY,INCLINATION,RA_OF_ASC_NODE,ARG_OF_PERICENTER,MEAN_ANOMALY,BSTAR,MEAN_MOTION_DOT,MEAN_MOTION_DDOT,TLE_LINE0,TLE_LINE1,TLE_LINE2,SEMIMAJOR_AXIS,PERIOD,APOGEE,PERIGEE,DECAYED
53798.0,STARLINK-4712,PAYLOAD,2024-01-30 10:57:01,15.0883983,0.0001196,53.2174,126.9466,85.809,274.3039,5.2077e-05,5.41e-06,0.0,0 STARLINK-4712,1 53798U 22111AB  24030.45626833  .00000541  00000-0  52077-4 0  9990,2 53798  53.2174 126.9466 0001196  85.8090 274.3039 15.08839830 76744,6917.881,95.438,540.573,538.919,0.0
53798.0,STARLINK-4712,PAYLOAD,2024-01-30 12:32:24,15.08840511,0.000139,53.216,126.6488,77.2801,282.8346,6.5287e-05,7.51e-06,0.0,0 STARLINK-4712,1 53798U 22111AB  24030.52250802  .00000751  00000-0  65287-4 0  9997,2 53798  53.2160 126.6488 0001390  77.2801 282.8346 15.08840511 77565,6917.879,95.438,540.705,538.782,0.0
53798.0,STARLINK-4712,PAYLOAD,2024-01-31 12:23:11,15.08838716,0.0001717,53.2175,122.1895,99.5327,260.586,6.0327e-05,6.72e-06,0.0,0 STARLINK-4712,1 53798U 22111AB  24031.51610899  .00000672  00000-0  60327-4 0  9995,2 53798  53.2175 122.1895 0001717  99.5327 260.5860 15.08838716 76902,6917.884,95.438,540.937,538.562,0.0
53798.0,STARLINK-4712,PAYLOAD,2024-02-01 10:38:35,15.08839724,0.0001749,53.2176,118.0263,111.2781,248.8398,7.5743e-05,9.18e-06,0.0,0 STARLINK-4712,1 53798U 22111AB  24032.44346714  .00000918  00000-0  75743-4 0  9991,2 53798  53.2176 118.0263 0001749 111.2781 248.8398 15.08839724 77857,6917.881,95.438,540.956,538.536,0.0
53798.0,STARLINK-4712,PAYLOAD,2024-02-01 15:24:44,15.08843016,0.0001705,53.2171,117.1328,111.7053,248.4121,8.9775e-05,1.141e-05,0.0,0 STARLINK-4712,1 53798U 22111AB  24032.64218453  .00001141  00000-0  89775-4 0  9990,2 53798  53.2171 117.1328 0001705 111.7053 248.4121 15.08843016 77076,6917.871,95.437,540.916,538.557,0.0
53798.0,STARLINK-4712,PAYLOAD,2024-02-02 10:29:22,15.08841662,0.0001647,53.2176,113.5618,104.6591,255.4584,5.2081e-05,5.41e-06,0.0,0 STARLINK-4712,1 53798U 22111AB  24033.43706668  .00000541  00000-0  52081-4 0  9991,2 53798  53.2176 113.5618 0001647 104.6591 255.4584 15.08841662 78006,6917.875,95.437,540.88,538.601,0.0
53798.0,STARLINK-4712,PAYLOAD,2024-02-03 03:58:37,15.08836083,0.0001627,53.218,110.293,100.2368,259.8807,-9.3498e-06,-4.37e-06,0.0,0 STARLINK-4712,1 53798U 22111AB  24034.16571328 -.00000437  00000-0 -93498-5 0  9999,2 53798  53.2180 110.2930 0001627 100.2368 259.8807 15.08836083 77303,6917.892,95.438,540.883,538.632,0.0
53798.0,STARLINK-4712,PAYLOAD,2024-02-03 11:55:33,15.08840264,0.0001626,53.218,108.8072,102.1151,258.0024,1.5058e-05,-4.8e-07,0.0,0 STARLINK-4712,1 53798U 22111AB  24034.49691012 -.00000048  00000-0  15058-4 0  9990,2 53798  53.2180 108.8072 0001626 102.1151 258.0024 15.08840264 78166,6917.88,95.438,540.869,538.62,0.0
53798.0,STARLINK-4712,PAYLOAD,2024-02-04 10:10:56,15.08839002,0.0001622,53.218,104.6452,102.1456,257.9718,6.9128e-05,8.12e-06,0.0,0 STARLINK-4712,1 53798U 22111AB  24035.42426992  .00000812  00000-0  69128-4 0  9992,2 53798  53.2180 104.6452 0001622 102.1456 257.9718 15.08839002 77497,6917.883,95.438,540.871,538.626,0.0
53798.0,STARLINK-4712,PAYLOAD,2024-02-05 11:37:07,15.08841229,0.0001464,53.2168,99.8867,90.9839,269.1321,6.138e-05,6.89e-06,0.0,0 STARLINK-4712,1 53798U 22111AB  24036.48411127  .00000689  00000-0  61380-4 0  9997,2 53798  53.2168  99.8867 0001464  90.9839 269.1321 15.08841229 77658,6917.877,95.437,540.754,538.729,0.0
53798.0,STARLINK-4712,PAYLOAD,2024-02-06 11:27:50,15.08885099,0.0001663,53.217,95.4266,89.996,270.1223,0.00045022,6.893e-05,0.0,0 STARLINK-4712,1 53798U 22111AB  24037.47767342  .00006893  00000-0  45022-3 0  9997,2 53798  53.2170  95.4266 0001663  89.9960 270.1223 15.08885099 77803,6917.743,95.435,540.758,538.457,0.0
53798.0,STARLINK-4712,PAYLOAD,2024-02-07 03:21:44,15.08845559,0.0001687,53.2176,92.4513,112.8029,247.3141,1.9148e-05,1.7e-07,0.0,0 STARLINK-4712,1 53798U 22111AB  24038.14010396  .00000017  00000-0  19148-4 0  9995,2 53798  53.2176  92.4513 0001687 112.8029 247.3141 15.08845559 77902,6917.863,95.437,540.895,538.561,0.0
53798.0,STARLINK-4712,PAYLOAD,2024-02-07 09:43:18,15.08840373,0.0001966,53.2192,91.259,123.0339,237.0842,-5.9686e-05,-1.238e-05,0.0,0 STARLINK-4712,1 53798U 22111AB  24038.40507135 -.00001238  00000-0 -59686-4 0  9995,2 53798  53.2192  91.2590 0001966 123.0339 237.0842 15.08840373 77947,6917.879,95.438,541.104,538.384,0.0
53798.0,STARLINK-4712,PAYLOAD,2024-02-07 20:51:00,15.0883137,0.000152,53.2189,89.1803,82.3634,277.7531,-7.9446e-05,-1.552e-05,0.0,0 STARLINK-4712,1 53798U 22111AB  24038.86876029 -.00001552  00000-0 -79446-4 0  9991,2 53798  53.2189  89.1803 0001520  82.3634 277.7531 15.08831370 78828,6917.907,95.438,540.823,538.72,0.0
53798.0,STARLINK-4712,PAYLOAD,2024-02-08 09:34:04,15.08868781,0.0001366,53.2174,86.802,104.9277,255.1867,-0.00026286,-4.472e-05,0.0,0 STARLINK-4712,1 53798U 22111AB  24039.39866293 -.00004472  00000-0 -26286-3 0  9999,2 53798  53.2174  86.8020 0001366 104.9277 255.1867 15.08868781 78096,6917.792,95.436,540.602,538.712,0.0
53798.0,STARLINK-4712,PAYLOAD,2024-02-09 09:24:52,15.08829588,0.0001352,53.2168,82.3414,95.8593,264.2554,0.00019433,2.805e-05,0.0,0 STARLINK-4712,1 53798U 22111AB  24040.39227486  .00002805  00000-0  19433-3 0  9998,2 53798  53.2168  82.3414 0001352  95.8593 264.2554 15.08829588 78244,6917.912,95.438,540.713,538.842,0.0
53798.0,STARLINK-4712,PAYLOAD,2024-02-09 12:35:38,15.088327,0.0001305,53.2163,81.7459,95.9376,264.1765,0.0002145,3.127e-05,0.0,0 STARLINK-4712,1 53798U 22111AB  24040.52475318  .00003127  00000-0  21450-3 0  9992,2 53798  53.2163  81.7459 0001305  95.9376 264.1765 15.08832700 79074,6917.903,95.438,540.67,538.865,0.0
53798.0,STARLINK-4712,PAYLOAD,2024-02-10 09:15:39,15.08843151,0.0001349,53.2165,77.8775,90.3807,269.734,7.9309e-06,-1.62e-06,0.0,0 STARLINK-4712,1 53798U 22111AB  24041.38587643 -.00000162  00000-0  79309-5 0  9997,2 53798  53.2165  77.8775 0001349  90.3807 269.7340 15.08843151 79206,6917.871,95.437,540.669,538.803,0.0
53798.0,STARLINK-4712,PAYLOAD,2024-02-11 02:44:54,15.08837657,0.0001612,53.2179,74.6095,110.6669,249.4496,1.536e-05,-4.4e-07,0.0,0 STARLINK-4712,1 53798U 22111AB  24042.11452181 -.00000044  00000-0  15360-4 0  9992,2 53798  53.2179  74.6095 0001612 110.6669 249.4496 15.08837657 78509,6917.888,95.438,540.868,538.637,0.0
53798.0,STARLINK-4712,PAYLOAD,2024-02-11 09:06:26,15.08842238,0.0001662,53.2181,73.4213,110.8291,249.2879,4.6146e-05,4.46e-06,0.0,0 STARLINK-4712,1 53798U 22111AB  24042.37947830  .00000446  00000-0  46146-4 0  9991,2 53798  53.2181  73.4213 0001662 110.8291 249.2879 15.08842238 79357,6917.874,95.437,540.888,538.589,0.0
53798.0,STARLINK-4712,PAYLOAD,2024-02-12 08:57:15,15.08791959,0.0002023,53.2186,68.9621,99.7374,260.3847,0.0008565,0.00013352,0.0,0 STARLINK-4712,1 53798U 22111AB  24043.37309130  .00013352  00000-0  85650-3 0  9999,2 53798  53.2186  68.9621 0002023  99.7374 260.3847 15.08791959 78691,6918.027,95.441,541.292,538.493,0.0
53798.0,STARLINK-4712,PAYLOAD,2024-02-13 00:51:05,15.08840113,0.0002073,53.2192,65.9938,91.5397,268.5832,7.628e-05,9.26e-06,0.0,0 STARLINK-4712,1 53798U 22111AB  24044.03548396  .00000926  00000-0  76280-4 0  9995,2 53798  53.2192  65.9938 0002073  91.5397 268.5832 15.08840113 78798,6917.88,95.438,541.179,538.311,0.0
53798.0,STARLINK-4712,PAYLOAD,2024-02-13 08:48:01,15.08836975,0.0001841,53.2186,64.5019,71.1151,289.0041,3.5799e-05,2.82e-06,0.0,0 STARLINK-4712,1 53798U 22111AB  24044.36668955  .00000282  00000-0  35799-4 0  9990,2 53798  53.2186  64.5019 0001841  71.1151 289.0041 15.08836975 78847,6917.89,95.438,541.028,538.481,0.0
53798.0,STARLINK-4712,PAYLOAD,2024-02-13 18:20:20,15.08840576,0.0001646,53.2183,62.7176,93.0653,267.0527,4.3487e-06,-2.19e-06,0.0,0 STARLINK-4712,1 53798U 22111AB  24044.76412718 -.00000219  00000-0  43487-5 0  9993,2 53798  53.2183  62.7176 0001646  93.0653 267.0527 15.08840576 79715,6917.879,95.438,540.882,538.605,0.0
53798.0,STARLINK-4712,PAYLOAD,2024-02-14 10:14:11,15.08851267,0.0001681,53.2182,59.7413,91.3003,268.8182,9.0718e-05,1.156e-05,0.0,0 STARLINK-4712,1 53798U 22111AB  24045.42651856  .00001156  00000-0  90718-4 0  9993,2 53798  53.2182  59.7413 0001681  91.3003 268.8182 15.08851267 79000,6917.846,95.437,540.874,538.548,0.0
53798.0,STARLINK-4712,PAYLOAD,2024-02-14 18:11:07,15.08838849,0.0001602,53.2174,58.2547,84.183,275.9344,7.6017e-05,9.22e-06,0.0,0 STARLINK-4712,1 53798U 22111AB  24045.75772654  .00000922  00000-0  76017-4 0  9995,2 53798  53.2174  58.2547 0001602  84.1830 275.9344 15.08838849 79059,6917.884,95.438,540.857,538.641,0.0
53798.0,STARLINK-4712,PAYLOAD,2024-02-15 10:04:58,15.08844984,0.000155,53.2173,55.2804,93.9348,266.1821,0.00010832,1.437e-05,0.0,0 STARLINK-4712,1 53798U 22111AB  24046.42012250  .00001437  00000-0  10832-3 0  9993,2 53798  53.2173  55.2804 0001550  93.9348 266.1821 15.08844984 79964,6917.865,95.437,540.802,538.658,0.0
53798.0,STARLINK-4712,PAYLOAD,2024-02-15 18:01:54,15.08836714,0.0001579,53.2185,53.7943,90.6795,269.4378,5.1734e-05,5.35e-06,0.0,0 STARLINK-4712,1 53798U 22111AB  24046.75133027  .00000535  00000-0  51734-4 0  9990,2 53798  53.2185  53.7943 0001579  90.6795 269.4378 15.08836714 80018,6917.89,95.438,540.848,538.663,0.0
53798.0,STARLINK-4712,PAYLOAD,2024-02-16 03:34:13,15.08837865,0.0001523,53.2178,52.0103,90.366,269.7507,6.1973e-05,6.98e-06,0.0,0 STARLINK-4712,1 53798U 22111AB  24047.14877072  .00000698  00000-0  61973-4 0  9995,2 53798  53.2178  52.0103 0001523  90.3660 269.7507 15.08837865 79267,6917.887,95.438,540.806,538.698,0.0
53798.0,STARLINK-4712,PAYLOAD,2024-02-16 09:55:45,15.08846863,0.0001555,53.2172,50.8193,92.312,267.805,0.00013699,1.893e-05,0.0,0 STARLINK-4712,1 53798U 22111AB  24047.41372558  .00001893  00000-0  13699-3 0  9993,2 53798  53.2172  50.8193 0001555  92.3120 267.8050 15.08846863 79309,6917.859,95.437,540.8,538.649,0.0
